[{"OBJECT_NAME":"STARLINK-5405","OBJECT_ID":"2022-177AV","EPOCH":"2026-03-09T22:00:01.999584","MEAN_MOTION":15.10138362,"ECCENTRICITY":0.00022647,"INCLINATION":43.0003,"RA_OF_ASC_NODE":118.8371,"ARG_OF_PERICENTER":258.7571,"MEAN_ANOMALY":56.1393,"EPHEMERIS_TYPE":0,"CLASSIFICATION_TYPE":"U","NORAD_CAT_ID":54863,"ELEMENT_SET_NO":999,"REV_AT_EPOCH":572,"BSTAR":0.0015080968,"MEAN_MOTION_DOT":0.00024894,"MEAN_MOTION_DDOT":0},{"OBJECT_NAME":"UNKNOWN","OBJECT_ID":"","EPOCH":"2026-03-09T16:30:44.564256","MEAN_MOTION":14.36564228,"ECCENTRICITY":0.0359571,"INCLINATION":65.6735,"RA_OF_ASC_NODE":282.8329,"ARG_OF_PERICENTER":31.2915,"MEAN_ANOMALY":28.2093,"EPHEMERIS_TYPE":0,"CLASSIFICATION_TYPE":"U","NORAD_CAT_ID":87764,"ELEMENT_SET_NO":999,"REV_AT_EPOCH":63160,"BSTAR":0.0015438,"MEAN_MOTION_DOT":9.503e-5,"MEAN_MOTION_DDOT":0}]
